{
 "type": "FeatureCollection",
 "features": [
  {
   "type": "Feature",
   "geometry": {
    "type": "Polygon",
    "coordinates": [
     [
      [
       -56.447197,
       -15.783948
      ],
      [
       -56.440483,
       -15.785318
      ],
      [
       -56.420237,
       -15.791298
      ],
      [
       -56.416134,
       -15.792509
      ],
      [
       -56.410038,
       -15.794309
      ],
      [
       -56.409562,
       -15.794449
      ],
      [
       -56.403598,
       -15.79621
      ],
      [
       -56.394168,
       -15.798993
      ],
      [
       -56.387669,
       -15.800911
      ],
      [
       -56.380454,
       -15.80304
      ],
      [
       -56.379291,
       -15.803384
      ],
      [
       -56.379144,
       -15.803427
      ],
      [
       -56.376376,
       -15.804244
      ],
      [
       -56.376545,
       -15.80498
      ],
      [
       -56.37919,
       -15.816018
      ],
      [
       -56.38178,
       -15.826858
      ],
      [
       -56.383385,
       -15.833577
      ],
      [
       -56.382502,
       -15.8382
      ],
      [
       -56.379679,
       -15.852979
      ],
      [
       -56.372991,
       -15.887987
      ],
      [
       -56.373815,
       -15.898934
      ],
      [
       -56.374717,
       -15.910936
      ],
      [
       -56.375023,
       -15.915061
      ],
      [
       -56.375614,
       -15.922873
      ],
      [
       -56.404021,
       -15.92589
      ],
      [
       -56.438391,
       -15.920433
      ],
      [
       -56.469821,
       -15.916226
      ],
      [
       -56.473506,
       -15.915703
      ],
      [
       -56.477103,
       -15.915223
      ],
      [
       -56.480581,
       -15.914791
      ],
      [
       -56.487664,
       -15.913862
      ],
      [
       -56.490383,
       -15.913491
      ],
      [
       -56.492768,
       -15.907406
      ],
      [
       -56.49362,
       -15.905192
      ],
      [
       -56.493968,
       -15.904297
      ],
      [
       -56.494054,
       -15.90401
      ],
      [
       -56.490074,
       -15.893458
      ],
      [
       -56.487928,
       -15.887893
      ],
      [
       -56.484099,
       -15.877745
      ],
      [
       -56.478085,
       -15.861823
      ],
      [
       -56.476929,
       -15.858754
      ],
      [
       -56.47602,
       -15.856353
      ],
      [
       -56.46678,
       -15.831959
      ],
      [
       -56.465801,
       -15.829538
      ],
      [
       -56.464071,
       -15.825293
      ],
      [
       -56.46197,
       -15.820136
      ],
      [
       -56.447197,
       -15.783948
      ]
     ]
    ]
   },
   "properties": {
    "gid": "1026",
    "cd_sr": "SR-13",
    "nr_process": "54240001538/2004-70",
    "nm_comunid": "MATA CAVALO",
    "nm_municip": "NOSSA SENHORA DO LIVRAMENTO",
    "cd_uf": "MT",
    "dt_publica": "10/02/2006",
    "dt_public1": "24/06/2008",
    "nr_familia": "418",
    "dt_titulac": null,
    "area_calc_ha": "14757.8430",
    "perimetro_calc_m": "449112.3038",
    "responsave": "INCRA",
    "esfera": "FEDERAL"
   }
  },
  {
   "type": "Feature",
   "geometry": {
    "type": "Polygon",
    "coordinates": [
     [
      [
       -56.885203,
       -16.044359
      ],
      [
       -56.885335,
       -16.0447
      ],
      [
       -56.884967,
       -16.044866
      ],
      [
       -56.884584,
       -16.045018
      ],
      [
       -56.884078,
       -16.045177
      ],
      [
       -56.883696,
       -16.045298
      ],
      [
       -56.883533,
       -16.044952
      ],
      [
       -56.883325,
       -16.044517
      ],
      [
       -56.882501,
       -16.044724
      ],
      [
       -56.881722,
       -16.043485
      ],
      [
       -56.880951,
       -16.04358
      ],
      [
       -56.88121,
       -16.045226
      ],
      [
       -56.881266,
       -16.045584
      ],
      [
       -56.873443,
       -16.045978
      ],
      [
       -56.87262,
       -16.045769
      ],
      [
       -56.871848,
       -16.045318
      ],
      [
       -56.871307,
       -16.044753
      ],
      [
       -56.870079,
       -16.043254
      ],
      [
       -56.869379,
       -16.043728
      ],
      [
       -56.868592,
       -16.042672
      ],
      [
       -56.859434,
       -16.045145
      ],
      [
       -56.859281,
       -16.044647
      ],
      [
       -56.854288,
       -16.046015
      ],
      [
       -56.86775,
       -16.053631
      ],
      [
       -56.888618,
       -16.063823
      ],
      [
       -56.890742,
       -16.061267
      ],
      [
       -56.896087,
       -16.059266
      ],
      [
       -56.895701,
       -16.057178
      ],
      [
       -56.899854,
       -16.05678
      ],
      [
       -56.902105,
       -16.056582
      ],
      [
       -56.90494,
       -16.056338
      ],
      [
       -56.900214,
       -16.064192
      ],
      [
       -56.928493,
       -16.065089
      ],
      [
       -56.930156,
       -16.06446
      ],
      [
       -56.931953,
       -16.062553
      ],
      [
       -56.933385,
       -16.06127
      ],
      [
       -56.933847,
       -16.060792
      ],
      [
       -56.935426,
       -16.059161
      ],
      [
       -56.93693,
       -16.057606
      ],
      [
       -56.938183,
       -16.056845
      ],
      [
       -56.939293,
       -16.056084
      ],
      [
       -56.940269,
       -16.055437
      ],
      [
       -56.940884,
       -16.055141
      ],
      [
       -56.941359,
       -16.054913
      ],
      [
       -56.942343,
       -16.054439
      ],
      [
       -56.943395,
       -16.053574
      ],
      [
       -56.94258,
       -16.052633
      ],
      [
       -56.928298,
       -16.058817
      ],
      [
       -56.928268,
       -16.058683
      ],
      [
       -56.925143,
       -16.042542
      ],
      [
       -56.896233,
       -16.024809
      ],
      [
       -56.893897,
       -16.029128
      ],
      [
       -56.893686,
       -16.029606
      ],
      [
       -56.893426,
       -16.030361
      ],
      [
       -56.893303,
       -16.030871
      ],
      [
       -56.892692,
       -16.034195
      ],
      [
       -56.892537,
       -16.035708
      ],
      [
       -56.892497,
       -16.037816
      ],
      [
       -56.891945,
       -16.03986
      ],
      [
       -56.891672,
       -16.040732
      ],
      [
       -56.891085,
       -16.041665
      ],
      [
       -56.890414,
       -16.042272
      ],
      [
       -56.889715,
       -16.042664
      ],
      [
       -56.889154,
       -16.042854
      ],
      [
       -56.886723,
       -16.044038
      ],
      [
       -56.886556,
       -16.043714
      ],
      [
       -56.885579,
       -16.041929
      ],
      [
       -56.884995,
       -16.042059
      ],
      [
       -56.884444,
       -16.042405
      ],
      [
       -56.885203,
       -16.044359
      ]
     ]
    ]
   },
   "properties": {
    "gid": "1262",
    "cd_sr": "SR-13",
    "nr_process": "54240005272/2005-15",
    "nm_comunid": "CAMPINA DE PEDRA",
    "nm_municip": "POCONE",
    "cd_uf": "MT",
    "dt_publica": "21/10/2010",
    "dt_public1": null,
    "nr_familia": "45",
    "dt_titulac": null,
    "area_calc_ha": "1781.2312",
    "perimetro_calc_m": "249333.2598",
    "responsave": "INCRA",
    "esfera": "FEDERAL"
   }
  },
  {
   "type": "Feature",
   "geometry": {
    "type": "Polygon",
    "coordinates": [
     [
      [
       -57.072304,
       -15.467225
      ],
      [
       -57.087989,
       -15.488521
      ],
      [
       -57.101438,
       -15.482558
      ],
      [
       -57.102364,
       -15.481812
      ],
      [
       -57.102527,
       -15.481051
      ],
      [
       -57.102302,
       -15.480266
      ],
      [
       -57.102325,
       -15.479796
      ],
      [
       -57.102538,
       -15.479017
      ],
      [
       -57.102834,
       -15.478581
      ],
      [
       -57.102266,
       -15.478203
      ],
      [
       -57.102823,
       -15.477761
      ],
      [
       -57.102073,
       -15.477405
      ],
      [
       -57.102431,
       -15.476739
      ],
      [
       -57.102518,
       -15.47594
      ],
      [
       -57.101976,
       -15.475599
      ],
      [
       -57.100872,
       -15.474444
      ],
      [
       -57.101342,
       -15.473558
      ],
      [
       -57.101046,
       -15.473565
      ],
      [
       -57.100136,
       -15.472906
      ],
      [
       -57.099511,
       -15.471598
      ],
      [
       -57.099051,
       -15.471863
      ],
      [
       -57.098526,
       -15.471447
      ],
      [
       -57.099073,
       -15.471169
      ],
      [
       -57.09935,
       -15.470329
      ],
      [
       -57.099019,
       -15.469708
      ],
      [
       -57.099645,
       -15.468794
      ],
      [
       -57.10018,
       -15.468475
      ],
      [
       -57.099851,
       -15.467883
      ],
      [
       -57.099184,
       -15.46726
      ],
      [
       -57.099446,
       -15.466996
      ],
      [
       -57.098792,
       -15.466512
      ],
      [
       -57.098478,
       -15.465858
      ],
      [
       -57.098142,
       -15.465301
      ],
      [
       -57.098227,
       -15.464296
      ],
      [
       -57.098419,
       -15.464133
      ],
      [
       -57.098617,
       -15.463756
      ],
      [
       -57.098686,
       -15.463079
      ],
      [
       -57.099258,
       -15.462314
      ],
      [
       -57.09924,
       -15.461179
      ],
      [
       -57.098756,
       -15.460085
      ],
      [
       -57.099149,
       -15.459295
      ],
      [
       -57.099759,
       -15.459264
      ],
      [
       -57.099925,
       -15.45888
      ],
      [
       -57.100109,
       -15.458969
      ],
      [
       -57.100744,
       -15.458716
      ],
      [
       -57.101288,
       -15.458305
      ],
      [
       -57.102131,
       -15.458377
      ],
      [
       -57.102071,
       -15.457982
      ],
      [
       -57.102088,
       -15.457426
      ],
      [
       -57.102287,
       -15.457142
      ],
      [
       -57.102157,
       -15.456856
      ],
      [
       -57.102633,
       -15.456287
      ],
      [
       -57.103049,
       -15.45504
      ],
      [
       -57.103134,
       -15.454738
      ],
      [
       -57.102579,
       -15.454567
      ],
      [
       -57.102537,
       -15.454325
      ],
      [
       -57.101814,
       -15.453184
      ],
      [
       -57.104617,
       -15.456052
      ],
      [
       -57.108264,
       -15.460304
      ],
      [
       -57.120164,
       -15.448507
      ],
      [
       -57.121072,
       -15.447881
      ],
      [
       -57.117328,
       -15.43645
      ],
      [
       -57.116193,
       -15.43564
      ],
      [
       -57.107741,
       -15.435951
      ],
      [
       -57.099408,
       -15.444079
      ],
      [
       -57.098433,
       -15.447671
      ],
      [
       -57.087478,
       -15.446308
      ],
      [
       -57.085426,
       -15.446201
      ],
      [
       -57.0696,
       -15.439082
      ],
      [
       -57.064412,
       -15.444893
      ],
      [
       -57.055703,
       -15.435154
      ],
      [
       -57.05141,
       -15.428627
      ],
      [
       -57.044093,
       -15.3948
      ],
      [
       -57.04332,
       -15.394156
      ],
      [
       -57.035742,
       -15.389649
      ],
      [
       -57.018062,
       -15.383962
      ],
      [
       -57.000027,
       -15.376342
      ],
      [
       -56.989171,
       -15.367015
      ],
      [
       -56.987031,
       -15.358875
      ],
      [
       -56.98696,
       -15.356248
      ],
      [
       -56.986607,
       -15.35382
      ],
      [
       -56.985688,
       -15.351757
      ],
      [
       -56.983031,
       -15.349171
      ],
      [
       -56.981628,
       -15.34911
      ],
      [
       -56.980539,
       -15.348889
      ],
      [
       -56.980087,
       -15.348384
      ],
      [
       -56.979619,
       -15.347646
      ],
      [
       -56.979377,
       -15.346962
      ],
      [
       -56.979063,
       -15.346418
      ],
      [
       -56.978963,
       -15.346352
      ],
      [
       -56.978764,
       -15.346405
      ],
      [
       -56.978599,
       -15.346583
      ],
      [
       -56.978498,
       -15.346856
      ],
      [
       -56.978406,
       -15.347633
      ],
      [
       -56.978295,
       -15.348822
      ],
      [
       -56.978191,
       -15.349087
      ],
      [
       -56.978074,
       -15.349365
      ],
      [
       -56.978066,
       -15.349701
      ],
      [
       -56.978114,
       -15.350155
      ],
      [
       -56.978249,
       -15.350328
      ],
      [
       -56.979263,
       -15.35081
      ],
      [
       -56.9802,
       -15.351281
      ],
      [
       -56.980691,
       -15.351667
      ],
      [
       -56.980939,
       -15.352041
      ],
      [
       -56.980973,
       -15.352344
      ],
      [
       -56.98114,
       -15.352706
      ],
      [
       -56.981157,
       -15.353196
      ],
      [
       -56.981219,
       -15.353426
      ],
      [
       -56.981535,
       -15.353806
      ],
      [
       -56.982655,
       -15.354781
      ],
      [
       -56.982895,
       -15.355144
      ],
      [
       -56.983047,
       -15.355486
      ],
      [
       -56.983136,
       -15.356255
      ],
      [
       -56.982555,
       -15.358446
      ],
      [
       -56.982627,
       -15.358669
      ],
      [
       -56.982875,
       -15.359058
      ],
      [
       -56.983013,
       -15.359158
      ],
      [
       -56.984257,
       -15.359811
      ],
      [
       -56.984501,
       -15.360104
      ],
      [
       -56.984779,
       -15.360302
      ],
      [
       -56.984908,
       -15.360522
      ],
      [
       -56.984844,
       -15.360942
      ],
      [
       -56.984531,
       -15.361505
      ],
      [
       -56.9842,
       -15.361937
      ],
      [
       -56.984205,
       -15.362223
      ],
      [
       -56.984331,
       -15.362434
      ],
      [
       -56.984546,
       -15.362599
      ],
      [
       -56.98504,
       -15.362889
      ],
      [
       -56.985454,
       -15.363354
      ],
      [
       -56.985555,
       -15.363712
      ],
      [
       -56.985351,
       -15.364741
      ],
      [
       -56.985237,
       -15.365115
      ],
      [
       -56.985256,
       -15.36537
      ],
      [
       -56.985609,
       -15.366018
      ],
      [
       -56.986059,
       -15.366474
      ],
      [
       -56.986458,
       -15.367118
      ],
      [
       -56.986557,
       -15.367335
      ],
      [
       -56.986608,
       -15.367414
      ],
      [
       -56.98698,
       -15.367779
      ],
      [
       -56.987209,
       -15.36817
      ],
      [
       -56.987467,
       -15.368649
      ],
      [
       -56.987491,
       -15.368954
      ],
      [
       -56.987534,
       -15.369109
      ],
      [
       -56.987679,
       -15.369452
      ],
      [
       -56.987978,
       -15.369889
      ],
      [
       -56.988162,
       -15.370331
      ],
      [
       -56.988152,
       -15.370699
      ],
      [
       -56.987814,
       -15.37137
      ],
      [
       -56.987697,
       -15.371795
      ],
      [
       -56.987743,
       -15.37209
      ],
      [
       -56.988003,
       -15.37262
      ],
      [
       -56.98841,
       -15.373109
      ],
      [
       -56.988791,
       -15.373593
      ],
      [
       -56.988925,
       -15.373854
      ],
      [
       -56.989046,
       -15.373991
      ],
      [
       -56.989698,
       -15.374284
      ],
      [
       -56.990096,
       -15.374593
      ],
      [
       -56.990199,
       -15.374959
      ],
      [
       -56.990105,
       -15.375328
      ],
      [
       -56.989844,
       -15.375548
      ],
      [
       -56.989757,
       -15.375599
      ],
      [
       -56.988486,
       -15.376551
      ],
      [
       -56.988281,
       -15.377816
      ],
      [
       -57.02164,
       -15.404927
      ],
      [
       -57.043815,
       -15.428208
      ],
      [
       -57.046044,
       -15.431254
      ],
      [
       -57.061056,
       -15.454076
      ],
      [
       -57.072304,
       -15.467225
      ]
     ]
    ]
   },
   "properties": {
    "gid": "1414",
    "cd_sr": "SR_13",
    "nr_process": "54240.000396/2011-52",
    "nm_comunid": "TQ Bocaina",
    "nm_municip": "Porto Estrela",
    "cd_uf": "MT",
    "dt_publica": "22/06/2023",
    "dt_public1": "31/12/2024",
    "nr_familia": null,
    "dt_titulac": null,
    "area_calc_ha": "3575.4485",
    "perimetro_calc_m": "489391.8070",
    "responsave": "INCRA",
    "esfera": "FEDERAL"
   }
  },
  {
   "type": "Feature",
   "geometry": {
    "type": "Polygon",
    "coordinates": [
     [
      [
       -56.714632,
       -15.905735
      ],
      [
       -56.713773,
       -15.90729
      ],
      [
       -56.711621,
       -15.906114
      ],
      [
       -56.71088,
       -15.906443
      ],
      [
       -56.710916,
       -15.906662
      ],
      [
       -56.710358,
       -15.906916
      ],
      [
       -56.706819,
       -15.908524
      ],
      [
       -56.705241,
       -15.90924
      ],
      [
       -56.706737,
       -15.913045
      ],
      [
       -56.700059,
       -15.921383
      ],
      [
       -56.70309,
       -15.92351
      ],
      [
       -56.704574,
       -15.921659
      ],
      [
       -56.706095,
       -15.923121
      ],
      [
       -56.707045,
       -15.921945
      ],
      [
       -56.708792,
       -15.923271
      ],
      [
       -56.709312,
       -15.924488
      ],
      [
       -56.708316,
       -15.925191
      ],
      [
       -56.708353,
       -15.925241
      ],
      [
       -56.707689,
       -15.92574
      ],
      [
       -56.708797,
       -15.927573
      ],
      [
       -56.709285,
       -15.927168
      ],
      [
       -56.708835,
       -15.926481
      ],
      [
       -56.709882,
       -15.925813
      ],
      [
       -56.711973,
       -15.925022
      ],
      [
       -56.715302,
       -15.932875
      ],
      [
       -56.713383,
       -15.935519
      ],
      [
       -56.712689,
       -15.936833
      ],
      [
       -56.708755,
       -15.932221
      ],
      [
       -56.708282,
       -15.931669
      ],
      [
       -56.707922,
       -15.931964
      ],
      [
       -56.707023,
       -15.931787
      ],
      [
       -56.706806,
       -15.931745
      ],
      [
       -56.706536,
       -15.930929
      ],
      [
       -56.7063,
       -15.930911
      ],
      [
       -56.70442,
       -15.931942
      ],
      [
       -56.702304,
       -15.933106
      ],
      [
       -56.700828,
       -15.933862
      ],
      [
       -56.696222,
       -15.938962
      ],
      [
       -56.690457,
       -15.945351
      ],
      [
       -56.683095,
       -15.953508
      ],
      [
       -56.67485,
       -15.962639
      ],
      [
       -56.676308,
       -15.964552
      ],
      [
       -56.677938,
       -15.96557
      ],
      [
       -56.679928,
       -15.964556
      ],
      [
       -56.688478,
       -15.974658
      ],
      [
       -56.689617,
       -15.972136
      ],
      [
       -56.689015,
       -15.970028
      ],
      [
       -56.688672,
       -15.967915
      ],
      [
       -56.696009,
       -15.967803
      ],
      [
       -56.700164,
       -15.959357
      ],
      [
       -56.701644,
       -15.961642
      ],
      [
       -56.706734,
       -15.961419
      ],
      [
       -56.705615,
       -15.957673
      ],
      [
       -56.705457,
       -15.956666
      ],
      [
       -56.706701,
       -15.952218
      ],
      [
       -56.706884,
       -15.949819
      ],
      [
       -56.706941,
       -15.948283
      ],
      [
       -56.707301,
       -15.947918
      ],
      [
       -56.708779,
       -15.947117
      ],
      [
       -56.708943,
       -15.946945
      ],
      [
       -56.709017,
       -15.946682
      ],
      [
       -56.709013,
       -15.945741
      ],
      [
       -56.708872,
       -15.944863
      ],
      [
       -56.709885,
       -15.942757
      ],
      [
       -56.71222,
       -15.939168
      ],
      [
       -56.712893,
       -15.938225
      ],
      [
       -56.713491,
       -15.937597
      ],
      [
       -56.714374,
       -15.936691
      ],
      [
       -56.71493,
       -15.936206
      ],
      [
       -56.715915,
       -15.935475
      ],
      [
       -56.71705,
       -15.934489
      ],
      [
       -56.717639,
       -15.933852
      ],
      [
       -56.717797,
       -15.93398
      ],
      [
       -56.718271,
       -15.934264
      ],
      [
       -56.71878,
       -15.933678
      ],
      [
       -56.718622,
       -15.93328
      ],
      [
       -56.718551,
       -15.933102
      ],
      [
       -56.71942,
       -15.932414
      ],
      [
       -56.720756,
       -15.931638
      ],
      [
       -56.721962,
       -15.930856
      ],
      [
       -56.722133,
       -15.930659
      ],
      [
       -56.722209,
       -15.930435
      ],
      [
       -56.722309,
       -15.929202
      ],
      [
       -56.722322,
       -15.929011
      ],
      [
       -56.722365,
       -15.927919
      ],
      [
       -56.722368,
       -15.927615
      ],
      [
       -56.722561,
       -15.927473
      ],
      [
       -56.730113,
       -15.921852
      ],
      [
       -56.73212,
       -15.913385
      ],
      [
       -56.732165,
       -15.913198
      ],
      [
       -56.733314,
       -15.90821
      ],
      [
       -56.733266,
       -15.908206
      ],
      [
       -56.732172,
       -15.908288
      ],
      [
       -56.728105,
       -15.90769
      ],
      [
       -56.728397,
       -15.909102
      ],
      [
       -56.728211,
       -15.909133
      ],
      [
       -56.721608,
       -15.9101
      ],
      [
       -56.714632,
       -15.905735
      ]
     ]
    ]
   },
   "properties": {
    "gid": "1275",
    "cd_sr": "SR-13",
    "nr_process": "54240.0005236/2005-51",
    "nm_comunid": "LARANJAL",
    "nm_municip": "POCONÉ",
    "cd_uf": "MT",
    "dt_publica": "09/11/2018",
    "dt_public1": null,
    "nr_familia": "53",
    "dt_titulac": null,
    "area_calc_ha": "1473.5955",
    "perimetro_calc_m": "255176.2384",
    "responsave": "INCRA",
    "esfera": "FEDERAL"
   }
  }
 ]
}